TWILIGHT AG             
1 67393U 26004AG  26035.28476219  .00007388  00000+0  36657-3 0  9990
2 67393  97.4562  36.3047 0007526  83.2673 276.9418 15.17976612  3594
TWILIGHT AH             
1 67394U 26004AH  26035.27703599  .00006521  00000+0  32131-3 0  9995
2 67394  97.4465  36.2726 0010774  81.9183 278.3273 15.18242002  3595
TWILIGHT AJ             
1 67395U 26004AJ  26035.22056210  .00002972  00000+0  33130-3 0  9998
2 67395  97.8008  35.9937 0004809 190.3537 169.7581 14.87797739  3506
TWILIGHT AK             
1 67396U 26004AK  26035.21751861  .00010036  00000+0  49871-3 0  9991
2 67396  97.4501  36.2114 0008813  81.6083 278.6150 15.17818792  3586
CARBSAR                 
1 67397U 26004AL  26035.28557400  .00009604  00000+0  47774-3 0  9991
2 67397  97.4521  36.2805 0007895  85.0250 275.1885 15.17803593  3590
TWILIGHT AM             
1 67398U 26004AM  26035.21645557  .00006438  00000+0  32025-3 0  9991
2 67398  97.4559  36.2310 0008773  90.4134 269.8105 15.17927265  3587
TWILIGHT AN             
1 67399U 26004AN  26035.21404074  .00011242  00000+0  55376-3 0  9992
2 67399  97.4547  36.2305 0009526  89.9699 270.2627 15.18087913  3588
CONNECTA IOT-13         
1 67400U 26004AP  26035.27522584 -.00003332  00000+0 -15904-3 0  9994
2 67400  97.4547  36.3009 0011026  89.9448 270.3049 15.18324231  3590
CONNECTA IOT-14         
1 67401U 26004AQ  26035.27355927  .00019065  00000+0  92424-3 0  9990
2 67401  97.4476  36.2837 0012648  85.0995 275.1683 15.18493830  3594
CONNECTA IOT-15         
1 67402U 26004AR  26035.23231889 -.00004389  00000+0 -22025-3 0  9992
2 67402  97.4548  36.2075 0004780  74.7266 285.4495 15.16803613  3578
SHIJIAN-29B (SJ-29B)    
1 67403U 25315C   26035.07271743 -.00000074  00000+0  00000+0 0  9993
2 67403   3.0610  98.5938 0001981 310.7205 184.1946  1.00271735   358
STARLINK-36484          
1 67404U 26005A   26035.25004630 -.00662892  00000+0 -16830-1 0  9993
2 67404  42.9996  69.9402 0001582 267.4749 197.0302 15.41113372  4764
STARLINK-36452          
1 67405U 26005B   26035.25004630  .00036615  00000+0  62810-3 0  9991
2 67405  42.9999  69.8559 0001378 261.0776 237.8938 15.50530972  4760
STARLINK-36409          
1 67406U 26005C   26035.25004630 -.00500836  00000+0 -90295-2 0  9992
2 67406  42.9997  69.8507 0001023 280.9849 219.8398 15.50766783  4817
STARLINK-36510          
1 67407U 26005D   26035.25004630  .00084762  00000+0  14383-2 0  9990
2 67407  43.0000  69.8465 0001417 272.1598 230.6496 15.50515036  4812
STARLINK-36509          
1 67408U 26005E   26035.25004630  .00037590  00000+0  64462-3 0  9992
2 67408  43.0000  69.8409 0001339 260.8741 243.8511 15.50529406  4818
STARLINK-36507          
1 67409U 26005F   26035.25004630 -.00072197  00000+0 -12354-2 0  9999
2 67409  42.9999  69.8359 0001360 270.7293 235.8877 15.50596310  4818
STARLINK-36508          
1 67410U 26005G   26035.25004630 -.02051784  00000+0 -48099-1 0  9996
2 67410  42.9997  69.8650 0001110 278.0704 217.1776 15.44822897  4819
STARLINK-36503          
1 67411U 26005H   26035.25004630  .00035976  00000+0  61725-3 0  9991
2 67411  43.0000  69.8263 0001357 262.6729 247.7979 15.50532563  4556
STARLINK-36446          
1 67412U 26005J   26035.25004630 -.00071764  00000+0 -12276-2 0  9995
2 67412  42.9999  69.8218 0001375 264.0129 248.3456 15.50604465  4819
STARLINK-36442          
1 67413U 26005K   26035.25004630  .00036475  00000+0  62571-3 0  9998
2 67413  42.9999  69.8159 0001341 260.3870 253.9218 15.50531492  4816
STARLINK-36506          
1 67414U 26005L   26035.25004630  .00035206  00000+0  60425-3 0  9996
2 67414  42.9999  69.8114 0001245 262.8805 253.3438 15.50531838  4818
STARLINK-36468          
1 67415U 26005M   26035.25004630  .00033612  00000+0  57726-3 0  9996
2 67415  43.0000  69.8068 0001443 266.5697 251.5729 15.50531749  4760
STARLINK-36487          
1 67416U 26005N   26035.25004630 -.02091139  00000+0 -46307-1 0  9990
2 67416  42.9999  69.8180 0000955 270.4588 242.9518 15.46535004  4810
STARLINK-36374          
1 67417U 26005P   26035.25004630 -.00072716  00000+0 -12444-2 0  9995
2 67417  43.0000  69.7973 0001384 266.6551 255.3004 15.50596398  4815
STARLINK-36455          
1 67418U 26005Q   26035.25004630 -.00078214  00000+0 -13398-2 0  9994
2 67418  43.0000  69.7923 0001409 271.5040 252.3679 15.50598412  4811
STARLINK-36424          
1 67419U 26005R   26035.25004630  .00040630  00000+0  69606-3 0  9998
2 67419  43.0000  69.7880 0001340 263.1978 262.6161 15.50527615  4812
STARLINK-35564          
1 67420U 26005S   26035.25004630 -.00086595  00000+0 -14853-2 0  9995
2 67420  43.0000  69.7826 0001486 270.8596 256.8460 15.50602986  4706
STARLINK-36431          
1 67421U 26005T   26035.25004630 -.01693152  00000+0 -41233-1 0  9991
2 67421  43.0002  69.8265 0001389 279.1475 231.6842 15.43604566  4609
STARLINK-36418          
1 67422U 26005U   26035.25004630  .00039088  00000+0  66993-3 0  9993
2 67422  43.0000  69.7732 0001210 260.6311 270.9303 15.50530417  4769
STARLINK-36465          
1 67423U 26005V   26035.25004630 -.02054004  00000+0 -45601-1 0  9994
2 67423  43.0001  69.7866 0001059 275.0734 251.3486 15.46396007  4551
STARLINK-36362          
1 67424U 26005W   26035.25004630 -.02089268  00000+0 -41956-1 0  9994
2 67424  43.0000  69.7653 0000904 265.6918 269.0257 15.49304563  4812
STARLINK-36447          
1 67425U 26005X   26035.25004630 -.00326375  00000+0 -57683-2 0  9991
2 67425  42.9997  69.7589 0001075 265.5357 271.7282 15.50697236  4812
STARLINK-36146          
1 67426U 26005Y   26035.25004630  .00074134  00000+0  12601-2 0  9994
2 67426  43.0000  69.7544 0001519 265.6274 273.6011 15.50521287  4760
STARLINK-36459          
1 67427U 26005Z   26035.25004630  .00056071  00000+0  95660-3 0  9992
2 67427  43.0001  69.7489 0001567 265.1980 275.9505 15.50524226  4738
STARLINK-36464          
1 67428U 26005AA  26035.25004630  .00038376  00000+0  65789-3 0  9990
2 67428  43.0000  69.7390 0001452 267.8201 277.1633 15.50530477  4817
STARLINK-36513          
1 67429U 26005AB  26035.25004630  .00038800  00000+0  66502-3 0  9997
2 67429  43.0000  69.7337 0000935 258.4947 288.4008 15.50531941  4815
STARLINK-36515          
1 67430U 26005AC  26035.25004630  .00035510  00000+0  60936-3 0  9999
2 67430  43.0001  69.7435 0001455 271.3253 271.7365 15.50533369  4737
STARLINK-36443          
1 67431U 26005AD  26035.25004630  .00040157  00000+0  68802-3 0  9993
2 67431  43.0000  69.7284 0001023 254.9250 293.8906 15.50529775  4769
STARLINK-36460          
1 67432U 26005AE  26035.25004630  .00040464  00000+0  69323-3 0  9994
2 67432  43.0000  69.7238 0001238 264.5442 286.1901 15.50528408  4815
YAOGAN-50 01            
1 67433U 26006A   26035.26984536  .00000349  00000+0  14572-3 0  9993
2 67433 142.0319 293.4464 0000680 262.2936  97.7705 13.83253997  3021
CZ-6A R/B               
1 67434U 26006B   26035.22829709  .00001690  00000+0  19783-3 0  9999
2 67434 142.0437 306.6001 0203504 240.4791 117.5508 14.62299143  3173
HULIANWANG DIGUI-137    
1 67435U 26007A   26033.98075632 -.00000001  00000+0  13502-3 0  9999
2 67435  50.0076 213.7063 0000216 306.0341  54.0533 13.80162070  2834
HULIANWANG DIGUI-138    
1 67436U 26007B   26034.78230556 -.00000008  00000+0  13123-3 0  9993
2 67436  50.0059 210.6149 0000934 172.2090 187.8819 13.78693618  2946
HULIANWANG DIGUI-139    
1 67437U 26007C   26034.77955786  .00000022  00000+0  15986-3 0  9996
2 67437  49.9747 210.6519 0001614 314.9571  45.1191 13.78894093  2943
HULIANWANG DIGUI-140    
1 67438U 26007D   26034.64014697  .00000015  00000+0  15324-3 0  9998
2 67438  50.0036 211.1889 0000238   5.1735 354.9161 13.78795905  2924
HULIANWANG DIGUI-141    
1 67439U 26007E   26034.77429666 -.00000002  00000+0  13519-3 0  9990
2 67439  49.9944 210.5580 0004776 318.2876  41.7653 13.79539805  2941
HULIANWANG DIGUI-142    
1 67440U 26007F   26034.04729541 -.00000143  00000+0 -48778-6 0  9992
2 67440  50.0102 213.4074 0000305 327.1572  32.9304 13.80500213  2845
HULIANWANG DIGUI-143    
1 67441U 26007G   26034.04456569  .00000005  00000+0  13983-3 0  9992
2 67441  50.0106 213.3804 0000977 201.1601 158.9253 13.80721705  2842
HULIANWANG DIGUI-144    
1 67442U 26007H   26034.04202003 -.00000009  00000+0  12559-3 0  9998
2 67442  49.9801 213.4402 0000562 349.6646  10.4236 13.80966445  2849
HULIANWANG DIGUI-145    
1 67443U 26007J   26034.54542121  .00000004  00000+0  13925-3 0  9994
2 67443  49.9733 211.3496 0002953  95.4092 264.7139 13.80479504  2910
CZ-8A R/B               
1 67444U 26007K   26035.17987453 -.00000180  00000+0 -12400-4 0  9991
2 67444  50.0084 205.3545 0092189 156.9186 203.5904 14.13550969  3046
STARLINK-36542          
1 67445U 26008A   26035.25004630 -.02074970  00000+0 -24134-1 0  9993
2 67445  43.0004  36.5621 0000833 263.6615 310.0051 15.64318795  4424
STARLINK-36539          
1 67446U 26008B   26035.25004630 -.02080246  00000+0 -22398-1 0  9997
2 67446  42.9999  36.5204 0000891 271.7864 318.7399 15.66233700  4427
STARLINK-36440          
1 67447U 26008C   26035.26707140 -.00154345  00000+0 -10269-2 0  9990
2 67447  42.9996  36.3325 0001249 265.2672  94.8055 15.74888144  4439
STARLINK-36423          
1 67448U 26008D   26035.25004630 -.02031457  00000+0 -26234-1 0  9992
2 67448  42.9999  36.6114 0000711 271.6906 281.7137 15.61606325  4428
STARLINK-36519          
1 67449U 26008E   26035.25004630 -.02081075  00000+0 -17688-1 0  9997
2 67449  43.0000  36.4379 0001244 258.1723   5.1834 15.71882319  4426
STARLINK-36525          
1 67450U 26008F   26035.25004630 -.02077583  00000+0 -24369-1 0  9992
2 67450  43.0001  36.5417 0000907 265.3722 316.0804 15.64112522  4422
STARLINK-36511          
1 67451U 26008G   26035.25004630 -.02032060  00000+0 -25976-1 0  9999
2 67451  43.0001  36.5899 0000634 270.6917 291.2559 15.61867549  4423
